BEIDOU-3 M28            
1 58654U 23207A   26164.00359830 -.00000057  00000+0  00000+0 0  9990
2 58654  55.7492  62.4443 0003374 346.0621  13.9544  1.86229633 16760
BEIDOU-3 M26            
1 58655U 23207B   26161.11630189 -.00000052  00000+0  00000+0 0  9994
2 58655  55.7488  62.5282 0003349 318.7202  41.2779  1.86229681 16690
GSAT0225 (GALILEO 29)   
1 59598U 24079A   26165.18129994 -.00000011  00000+0  00000+0 0  9992
2 59598  55.1189 101.1643 0001626 297.4252 243.4663  1.70473835 13267
GSAT0227 (GALILEO 30)   
1 59600U 24079C   26165.06991354 -.00000010  00000+0  00000+0 0  9999
2 59600  55.1133 101.1657 0002051  47.7236 312.2495  1.70473921 13316
GSAT0232 (GALILEO 32)   
1 61182U 24167A   26165.42205897  .00000060  00000+0  00000+0 0  9999
2 61182  55.1857 221.3898 0006268 227.1556 204.5150  1.70474154 10836
GSAT0226 (GALILEO 31)   
1 61183U 24167B   26164.61722911  .00000062  00000+0  00000+0 0  9993
2 61183  55.1846 221.4192 0002934 226.2938 162.7706  1.70474135 10799
BEIDOU-3 M25            
1 61186U 24168B   26163.83690193 -.00000069  00000+0  00000+0 0  9994
2 61186  54.4778 302.3939 0003000 301.8949 199.4569  1.86229830 11706
BEIDOU-3 M27            
1 61187U 24168C   26164.49906013 -.00000070  00000+0  00000+0 0  9991
2 61187  54.4725 302.3538 0001596  50.9601 309.3604  1.86229877  9192
NAVSTAR 83 (USA 440)    
1 62339U 24242A   26164.36763877 -.00000075  00000+0  00000+0 0  9994
2 62339  54.8503 334.3363 0017188   3.9293   7.0837  2.00571230 11182
QZS-6 (MICHIBIKI-6)     
1 62876U 25023A   26165.52616225 -.00000226  00000+0  00000+0 0  9999
2 62876   0.0472  67.2156 0001700  23.1114  92.4408  1.00271327  4926
COSMOS 2584 [GLONASS-K2]
1 63130U 25042A   26159.22437978 -.00000015  00000+0  00000+0 0  9996
2 63130  65.0792  73.1067 0005828 228.4476 131.5246  2.13103875  9858
NAVSTAR 84 (USA 545)    
1 64202U 25116A   26163.38956388 -.00000065  00000+0  00000+0 0  9997
2 64202  55.2312  31.3239 0008563 338.8161 228.7168  2.00576015  7778
COSMOS 2596 [GLONASS-K1]
1 65590U 25206B   26161.38985729 -.00000039  00000+0  00000+0 0  9998
2 65590  64.6376 315.2225 0011087 312.7926  24.8898  2.13100656  5767
GSAT0233 (GALILEO 33)   
1 67160U 25302A   26164.11671058 -.00000003  00000+0  00000+0 0  9992
2 67160  54.3316 102.2474 0000940 233.3005 305.0843  1.70473941  3050
GSAT0234 (GALILEO 34)   
1 67162U 25302C   26165.00334236 -.00000009  00000+0  00000+0 0  9993
2 67162  54.3354 102.2210 0003051 308.5077 234.1291  1.70473901  3125
NAVSTAR 85 (USA 581)    
1 67588U 26017A   26164.20879687 -.00000028  00000+0  00000+0 0  9995
2 67588  55.0859  88.9150 0022147 258.0590 101.6773  2.00571123431536
NAVSTAR 86 (USA 585)    
1 68791U 26087A   26158.43909353  .00000057  00000+0  00000+0 0  9992
2 68791  54.9638 208.1735 0020931 107.2972 251.8874  2.00569573   638
